start=new Date('2022-03-19T00:00:00.000Z').valueOf();
sats=[{"CLASSIFICATION_TYPE":"U","OBJECT_NAME":"STARLINK-2689","RA_OF_ASC_NODE":"230.0628","ARG_OF_PERICENTER":"62.5901","COUNTRY_CODE":"US","BSTAR":"0.00033872000000","SITE":"AFETR","RCS_SIZE":"LARGE","NORAD_CAT_ID":"48463","ELEMENT_SET_NO":"999","PERIOD":"95.592","MEAN_MOTION":"15.06398644","TLE_LINE2":"2 48463  53.0542 230.0628 0001587  62.5901 297.5249 15.06398644 47646","PERIAPSIS":"546.119","OBJECT_ID":"2021-040AM","INCLINATION":"53.0542","FILE":"3364757","GP_ID":"199104251","OBJECT_TYPE":"PAYLOAD","MEAN_ELEMENT_THEORY":"SGP4","REV_AT_EPOCH":"4764","SEMIMAJOR_AXIS":"6925.353","MEAN_MOTION_DOT":"0.00004767","CENTER_NAME":"EARTH","REF_FRAME":"TEME","APOAPSIS":"548.317","TIME_SYSTEM":"UTC","LAUNCH_DATE":"2021-05-09","EPHEMERIS_TYPE":"0","ECCENTRICITY":"0.00015870","EPOCH":"2022-03-18T15:43:46.484832","DECAY_DATE":null,"MEAN_MOTION_DDOT":"0.0000000000000","TLE_LINE1":"1 48463U 21040AM  22077.65539913  .00004767  00000-0  33872-3 0  9991","MEAN_ANOMALY":"297.5249"},{"MEAN_MOTION_DDOT":"0.0000000000000","MEAN_ANOMALY":"264.9583","TLE_LINE1":"1 48464U 21040AN  22077.83326605  .00000615  00000-0  60193-4 0  9999","DECAY_DATE":null,"LAUNCH_DATE":"2021-05-09","ECCENTRICITY":"0.00020020","EPOCH":"2022-03-18T19:59:54.186720","EPHEMERIS_TYPE":"0","REF_FRAME":"TEME","APOAPSIS":"548.594","TIME_SYSTEM":"UTC","CENTER_NAME":"EARTH","MEAN_MOTION_DOT":"0.00000615","SEMIMAJOR_AXIS":"6925.343","OBJECT_TYPE":"PAYLOAD","FILE":"3364757","GP_ID":"199103990","REV_AT_EPOCH":"4766","MEAN_ELEMENT_THEORY":"SGP4","MEAN_MOTION":"15.06401827","OBJECT_ID":"2021-040AN","PERIAPSIS":"545.822","INCLINATION":"53.0536","TLE_LINE2":"2 48464  53.0536 229.2624 0002002  95.1635 264.9583 15.06401827 47664","PERIOD":"95.592","ELEMENT_SET_NO":"999","NORAD_CAT_ID":"48464","RCS_SIZE":"LARGE","BSTAR":"0.00006019300000","SITE":"AFETR","ARG_OF_PERICENTER":"95.1635","OBJECT_NAME":"STARLINK-2686","CLASSIFICATION_TYPE":"U","RA_OF_ASC_NODE":"229.2624","COUNTRY_CODE":"US"},{"BSTAR":"0.00024391000000","SITE":"AFETR","ARG_OF_PERICENTER":"74.8125","CLASSIFICATION_TYPE":"U","RA_OF_ASC_NODE":"229.2126","OBJECT_NAME":"STARLINK-2681","COUNTRY_CODE":"US","NORAD_CAT_ID":"48465","ELEMENT_SET_NO":"999","RCS_SIZE":"LARGE","MEAN_MOTION":"15.06394946","PERIAPSIS":"546.425","INCLINATION":"53.0546","OBJECT_ID":"2021-040AP","TLE_LINE2":"2 48465  53.0546 229.2126 0001161  74.8125 285.2992 15.06394946 47670","PERIOD":"95.592","SEMIMAJOR_AXIS":"6925.364","OBJECT_TYPE":"PAYLOAD","FILE":"3364757","GP_ID":"199103251","MEAN_ELEMENT_THEORY":"SGP4","REV_AT_EPOCH":"4767","CENTER_NAME":"EARTH","MEAN_MOTION_DOT":"0.00003353","LAUNCH_DATE":"2021-05-09","ECCENTRICITY":"0.00011610","EPOCH":"2022-03-18T20:15:50.775552","EPHEMERIS_TYPE":"0","REF_FRAME":"TEME","APOAPSIS":"548.033","TIME_SYSTEM":"UTC","DECAY_DATE":null,"MEAN_MOTION_DDOT":"0.0000000000000","TLE_LINE1":"1 48465U 21040AP  22077.84433768  .00003353  00000-0  24391-3 0  9991","MEAN_ANOMALY":"285.2992"},{"TIME_SYSTEM":"UTC","REF_FRAME":"TEME","APOAPSIS":"548.309","EPHEMERIS_TYPE":"0","EPOCH":"2022-03-18T19:54:36.144864","ECCENTRICITY":"0.00015800","LAUNCH_DATE":"2021-05-09","MEAN_MOTION_DOT":"0.00001796","CENTER_NAME":"EARTH","TLE_LINE1":"1 48466U 21040AQ  22077.82958501  .00001796  00000-0  13946-3 0  9990","MEAN_ANOMALY":"298.9955","MEAN_MOTION_DDOT":"0.0000000000000","DECAY_DATE":null,"RCS_SIZE":"LARGE","NORAD_CAT_ID":"48466","ELEMENT_SET_NO":"999","COUNTRY_CODE":"US","CLASSIFICATION_TYPE":"U","RA_OF_ASC_NODE":"229.2785","OBJECT_NAME":"STARLINK-2687","ARG_OF_PERICENTER":"61.1192","SITE":"AFETR","BSTAR":"0.00013946000000","REV_AT_EPOCH":"4767","MEAN_ELEMENT_THEORY":"SGP4","GP_ID":"199103501","FILE":"3364757","OBJECT_TYPE":"PAYLOAD","SEMIMAJOR_AXIS":"6925.349","PERIOD":"95.592","TLE_LINE2":"2 48466  53.0545 229.2785 0001580  61.1192 298.9955 15.06399695 47675","PERIAPSIS":"546.120","INCLINATION":"53.0545","OBJECT_ID":"2021-040AQ","MEAN_MOTION":"15.06399695"},{"NORAD_CAT_ID":"48467","ELEMENT_SET_NO":"999","RCS_SIZE":"LARGE","BSTAR":"0.00007482500000","SITE":"AFETR","CLASSIFICATION_TYPE":"U","RA_OF_ASC_NODE":"230.0564","OBJECT_NAME":"STARLINK-2659","ARG_OF_PERICENTER":"67.9297","COUNTRY_CODE":"US","SEMIMAJOR_AXIS":"6925.372","GP_ID":"199103752","FILE":"3364757","OBJECT_TYPE":"PAYLOAD","MEAN_ELEMENT_THEORY":"SGP4","REV_AT_EPOCH":"4764","MEAN_MOTION":"15.06392503","TLE_LINE2":"2 48467  53.0540 230.0564 0001581  67.9297 292.1860 15.06392503 47646","OBJECT_ID":"2021-040AR","PERIAPSIS":"546.142","INCLINATION":"53.0540","PERIOD":"95.593","LAUNCH_DATE":"2021-05-09","EPHEMERIS_TYPE":"0","ECCENTRICITY":"0.00015810","EPOCH":"2022-03-18T15:45:08.725536","APOAPSIS":"548.331","REF_FRAME":"TEME","TIME_SYSTEM":"UTC","CENTER_NAME":"EARTH","MEAN_MOTION_DOT":"0.00000833","MEAN_MOTION_DDOT":"0.0000000000000","TLE_LINE1":"1 48467U 21040AR  22077.65635099  .00000833  00000-0  74825-4 0  9991","MEAN_ANOMALY":"292.1860","DECAY_DATE":null},{"RCS_SIZE":"LARGE","NORAD_CAT_ID":"48468","ELEMENT_SET_NO":"999","ARG_OF_PERICENTER":"71.8325","CLASSIFICATION_TYPE":"U","OBJECT_NAME":"STARLINK-2685","RA_OF_ASC_NODE":"229.2356","COUNTRY_CODE":"US","BSTAR":"0.00009277600000","SITE":"AFETR","OBJECT_TYPE":"PAYLOAD","GP_ID":"199104490","FILE":"3364757","MEAN_ELEMENT_THEORY":"SGP4","REV_AT_EPOCH":"4767","SEMIMAJOR_AXIS":"6925.351","PERIOD":"95.592","MEAN_MOTION":"15.06399336","OBJECT_ID":"2021-040AS","PERIAPSIS":"546.052","INCLINATION":"53.0555","TLE_LINE2":"2 48468  53.0555 229.2356 0001680  71.8325 288.2846 15.06399336 47672","APOAPSIS":"548.379","REF_FRAME":"TEME","TIME_SYSTEM":"UTC","LAUNCH_DATE":"2021-05-09","ECCENTRICITY":"0.00016800","EPOCH":"2022-03-18T20:05:12.654528","EPHEMERIS_TYPE":"0","MEAN_MOTION_DOT":"0.00001101","CENTER_NAME":"EARTH","MEAN_MOTION_DDOT":"0.0000000000000","TLE_LINE1":"1 48468U 21040AS  22077.83695202  .00001101  00000-0  92776-4 0  9998","MEAN_ANOMALY":"288.2846","DECAY_DATE":null},{"PERIOD":"95.593","MEAN_MOTION":"15.06381228","PERIAPSIS":"546.601","INCLINATION":"53.0544","OBJECT_ID":"2021-040AT","TLE_LINE2":"2 48469  53.0544 230.0732 0000968 119.7551 240.3534 15.06381228 47641","OBJECT_TYPE":"PAYLOAD","FILE":"3364757","GP_ID":"199102752","REV_AT_EPOCH":"4764","MEAN_ELEMENT_THEORY":"SGP4","SEMIMAJOR_AXIS":"6925.406","ARG_OF_PERICENTER":"119.7551","CLASSIFICATION_TYPE":"U","OBJECT_NAME":"STARLINK-2661","RA_OF_ASC_NODE":"230.0732","COUNTRY_CODE":"US","BSTAR":"0.00015161000000","SITE":"AFETR","RCS_SIZE":"LARGE","NORAD_CAT_ID":"48469","ELEMENT_SET_NO":"999","DECAY_DATE":null,"MEAN_MOTION_DDOT":"0.0000000000000","TLE_LINE1":"1 48469U 21040AT  22077.65267978  .00001977  00000-0  15161-3 0  9997","MEAN_ANOMALY":"240.3534","MEAN_MOTION_DOT":"0.00001977","CENTER_NAME":"EARTH","APOAPSIS":"547.941","REF_FRAME":"TEME","TIME_SYSTEM":"UTC","LAUNCH_DATE":"2021-05-09","EPOCH":"2022-03-18T15:39:51.532992","ECCENTRICITY":"0.00009680","EPHEMERIS_TYPE":"0"},{"EPHEMERIS_TYPE":"0","ECCENTRICITY":"0.00020230","EPOCH":"2022-03-18T20:21:08.330976","LAUNCH_DATE":"2021-05-09","TIME_SYSTEM":"UTC","REF_FRAME":"TEME","APOAPSIS":"548.626","CENTER_NAME":"EARTH","MEAN_MOTION_DOT":"-0.00000203","MEAN_ANOMALY":"295.4776","TLE_LINE1":"1 48470U 21040AU  22077.84801309 -.00000203  00000-0  53009-5 0  9999","MEAN_MOTION_DDOT":"0.0000000000000","DECAY_DATE":null,"NORAD_CAT_ID":"48470","ELEMENT_SET_NO":"999","RCS_SIZE":"LARGE","SITE":"AFETR","BSTAR":"0.00000530090000","COUNTRY_CODE":"US","OBJECT_NAME":"STARLINK-2675","CLASSIFICATION_TYPE":"U","RA_OF_ASC_NODE":"229.1926","ARG_OF_PERICENTER":"64.6422","SEMIMAJOR_AXIS":"6925.360","MEAN_ELEMENT_THEORY":"SGP4","REV_AT_EPOCH":"4766","GP_ID":"199103503","FILE":"3364757","OBJECT_TYPE":"PAYLOAD","TLE_LINE2":"2 48470  53.0549 229.1926 0002023  64.6422 295.4776 15.06396134 47664","PERIAPSIS":"545.824","INCLINATION":"53.0549","OBJECT_ID":"2021-040AU","MEAN_MOTION":"15.06396134","PERIOD":"95.592"},{"MEAN_ELEMENT_THEORY":"SGP4","REV_AT_EPOCH":"4766","OBJECT_TYPE":"PAYLOAD","FILE":"3364757","GP_ID":"199104252","SEMIMAJOR_AXIS":"6925.322","PERIOD":"95.592","PERIAPSIS":"546.116","INCLINATION":"53.0524","OBJECT_ID":"2021-040AV","TLE_LINE2":"2 48471  53.0524 229.2285 0001547  54.6986 305.4147 15.06408699 47665","MEAN_MOTION":"15.06408699","RCS_SIZE":"LARGE","NORAD_CAT_ID":"48471","ELEMENT_SET_NO":"999","COUNTRY_CODE":"US","ARG_OF_PERICENTER":"54.6986","OBJECT_NAME":"STARLINK-2684","CLASSIFICATION_TYPE":"U","RA_OF_ASC_NODE":"229.2285","SITE":"AFETR","BSTAR":"0.00046971000000","MEAN_ANOMALY":"305.4147","TLE_LINE1":"1 48471U 21040AV  22077.84065465  .00006723  00000-0  46971-3 0  9995","MEAN_MOTION_DDOT":"0.0000000000000","DECAY_DATE":null,"TIME_SYSTEM":"UTC","APOAPSIS":"548.258","REF_FRAME":"TEME","ECCENTRICITY":"0.00015470","EPOCH":"2022-03-18T20:10:32.561760","EPHEMERIS_TYPE":"0","LAUNCH_DATE":"2021-05-09","MEAN_MOTION_DOT":"0.00006723","CENTER_NAME":"EARTH"},{"CENTER_NAME":"EARTH","MEAN_MOTION_DOT":"0.00010484","LAUNCH_DATE":"2021-05-09","EPHEMERIS_TYPE":"0","ECCENTRICITY":"0.00016330","EPOCH":"2022-03-18T19:44:00.041280","REF_FRAME":"TEME","APOAPSIS":"548.297","TIME_SYSTEM":"UTC","DECAY_DATE":null,"MEAN_MOTION_DDOT":"0.0000000000000","TLE_LINE1":"1 48472U 21040AW  22077.82222270  .00010484  00000-0  72137-3 0  9995","MEAN_ANOMALY":"303.1953","BSTAR":"0.00072137000000","SITE":"AFETR","RA_OF_ASC_NODE":"229.3009","CLASSIFICATION_TYPE":"U","OBJECT_NAME":"STARLINK-2722","ARG_OF_PERICENTER":"56.9193","COUNTRY_CODE":"US","ELEMENT_SET_NO":"999","NORAD_CAT_ID":"48472","RCS_SIZE":"LARGE","MEAN_MOTION":"15.06415607","TLE_LINE2":"2 48472  53.0540 229.3009 0001633  56.9193 303.1953 15.06415607 47656","OBJECT_ID":"2021-040AW","PERIAPSIS":"546.035","INCLINATION":"53.0540","PERIOD":"95.591","SEMIMAJOR_AXIS":"6925.301","FILE":"3364757","GP_ID":"199103991","OBJECT_TYPE":"PAYLOAD","MEAN_ELEMENT_THEORY":"SGP4","REV_AT_EPOCH":"4765"}];
